NORAD_CAT_ID,OBJECT_NAME,OBJECT_TYPE,EPOCH,MEAN_MOTION,ECCENTRICITY,INCLINATION,RA_OF_ASC_NODE,ARG_OF_PERICENTER,MEAN_ANOMALY,BSTAR,MEAN_MOTION_DOT,MEAN_MOTION_DDOT,TLE_LINE0,TLE_LINE1,TLE_LINE2,SEMIMAJOR_AXIS,PERIOD,APOGEE,PERIGEE,DECAYED
53172.0,STARLINK-4299,PAYLOAD,2023-02-05 14:01:42,15.08997325,0.0001306,53.2169,183.3806,103.7503,256.3634,0.0013961,0.00022097,0.0,0 STARLINK-4299,1 53172U 22083AS  23036.58451675  .00022097  00000-0  13961-2 0  9990,2 53172  53.2169 183.3806 0001306 103.7503 256.3634 15.08997325 31758,6917.4,95.428,540.168,538.361,0.0
53172.0,STARLINK-4299,PAYLOAD,2023-02-05 18:47:40,15.09119135,7.97e-05,53.2176,182.4879,117.5707,242.5367,0.0022973,0.00036745,0.0,0 STARLINK-4299,1 53172U 22083AS  23036.78311236  .00036745  00000-0  22973-2 0  9998,2 53172  53.2176 182.4879 0000797 117.5707 242.5367 15.09119135 31787,6917.027,95.42,539.444,538.341,0.0
53172.0,STARLINK-4299,PAYLOAD,2023-02-05 20:23:02,15.09136676,0.000151,53.2172,182.1904,78.3431,281.7731,0.0024102,0.00038594,0.0,0 STARLINK-4299,1 53172U 22083AS  23036.84933153  .00038594  00000-0  24102-2 0  9993,2 53172  53.2172 182.1904 0001510  78.3431 281.7731 15.09136676 31151,6916.974,95.419,539.883,537.794,0.0
53172.0,STARLINK-4299,PAYLOAD,2023-02-06 02:44:18,15.09304481,0.0001264,53.2174,180.9997,84.2534,275.8602,0.0036493,0.00059025,0.0,0 STARLINK-4299,1 53172U 22083AS  23037.11409796  .00059025  00000-0  36493-2 0  9993,2 53172  53.2174 180.9997 0001264  84.2534 275.8602 15.09304481 31834,6916.461,95.408,539.2,537.452,0.0
53172.0,STARLINK-4299,PAYLOAD,2023-02-06 07:30:25,15.09278712,0.0002137,53.2176,180.1076,84.7626,275.361,0.0032914,0.00053127,0.0,0 STARLINK-4299,1 53172U 22083AS  23037.31280060  .00053127  00000-0  32914-2 0  9997,2 53172  53.2176 180.1076 0002137  84.7626 275.3610 15.09278712 31867,6916.54,95.41,539.883,536.927,0.0
53172.0,STARLINK-4299,PAYLOAD,2023-02-06 13:51:34,15.09488617,0.0001933,53.2176,178.9165,73.9383,286.1822,0.004699,0.00076665,0.0,0 STARLINK-4299,1 53172U 22083AS  23037.57748457  .00076665  00000-0  46990-2 0  9995,2 53172  53.2176 178.9165 0001933  73.9383 286.1822 15.09488617 31260,6915.899,95.397,539.1,536.427,0.0
53172.0,STARLINK-4299,PAYLOAD,2023-02-06 17:02:03,15.09664642,0.0001151,53.2179,178.3199,81.5311,278.5812,0.0059317,0.0009761,0.0,0 STARLINK-4299,1 53172U 22083AS  23037.70976094  .00097610  00000-0  59317-2 0  9990,2 53172  53.2179 178.3199 0001151  81.5311 278.5812 15.09664642 31923,6915.361,95.385,538.022,536.43,0.0
53172.0,STARLINK-4299,PAYLOAD,2023-02-07 06:00:00,15.10447052,0.000119,53.2156,175.8914,87.2968,330.4302,0.0034878,0.000582,0.0,0 STARLINK-4299,1 53172U 22083AS  23038.25001157  .00058200  00000-0  34878-2 0  9997,2 53172  53.2156 175.8914 0001190  87.2968 330.4302 15.10447052 32007,6912.973,95.336,535.66,534.015,0.0
53172.0,STARLINK-4299,PAYLOAD,2023-02-07 14:00:01,15.10529724,0.0001225,53.2157,174.3927,82.2949,348.9826,-0.0051783,-0.00085602,0.0,0 STARLINK-4299,1 53172U 22083AS  23038.58334491 -.00085602  00000-0 -51783-2 0  9995,2 53172  53.2157 174.3927 0001225  82.2949 348.9826 15.10529724  1300,6912.72,95.331,535.432,533.739,0.0
53172.0,STARLINK-4299,PAYLOAD,2023-02-07 22:00:00,15.10441364,0.0001015,53.2158,172.8928,85.3106,359.5637,0.00082252,0.00013413,0.0,0 STARLINK-4299,1 53172U 22083AS  23038.91667824  .00013413  00000-0  82252-3 0  9996,2 53172  53.2158 172.8928 0001015  85.3106 359.5637 15.10441364 32104,6912.99,95.336,535.557,534.153,0.0
53172.0,STARLINK-4299,PAYLOAD,2023-02-08 14:00:01,15.10516668,0.0001097,53.2162,169.8925,92.2613,19.6784,-0.004454,-0.00073763,0.0,0 STARLINK-4299,1 53172U 22083AS  23039.58334491 -.00073763  00000-0 -44540-2 0  9994,2 53172  53.2162 169.8925 0001097  92.2613  19.6784 15.10516668  1307,6912.76,95.332,535.384,533.867,0.0
53172.0,STARLINK-4299,PAYLOAD,2023-02-08 22:00:00,15.1046439,0.0001019,53.2163,168.3925,95.2656,30.2637,0.0012255,0.0002016,0.0,0 STARLINK-4299,1 53172U 22083AS  23039.91667824  .00020160  00000-0  12255-2 0  9999,2 53172  53.2163 168.3925 0001019  95.2656  30.2637 15.10464390 32254,6912.92,95.335,535.489,534.08,0.0
53172.0,STARLINK-4299,PAYLOAD,2023-02-09 12:00:00,15.1056397,0.0001046,53.2168,165.7668,88.4188,330.8297,-0.0066638,-0.00109807,0.0,0 STARLINK-4299,1 53172U 22083AS  23040.50001157 -.00109807  00000-0 -66638-2 0  9999,2 53172  53.2168 165.7668 0001046  88.4188 330.8297 15.10563970  1305,6912.616,95.329,535.204,533.758,0.0
53172.0,STARLINK-4299,PAYLOAD,2023-02-09 22:00:00,15.10416626,0.000114,53.2166,163.892,60.3315,105.9317,0.0018433,0.00030475,0.0,0 STARLINK-4299,1 53172U 22083AS  23040.91667824  .00030475  00000-0  18433-2 0  9995,2 53172  53.2166 163.8920 0001140  60.3315 105.9317 15.10416626 32403,6913.065,95.338,535.719,534.142,0.0
53172.0,STARLINK-4299,PAYLOAD,2023-02-10 00:00:00,15.10433264,0.0001098,53.2167,163.5165,62.9019,196.7308,0.00043774,6.994e-05,0.0,0 STARLINK-4299,1 53172U 22083AS  23041.00001157  .00006994  00000-0  43774-3 0  9993,2 53172  53.2167 163.5165 0001098  62.9019 196.7308 15.10433264  1303,6913.015,95.337,535.639,534.121,0.0
53172.0,STARLINK-4299,PAYLOAD,2023-02-10 14:44:09,15.10479897,0.0001564,53.2185,160.7556,102.6692,257.4475,0.0001778,2.669e-05,0.0,0 STARLINK-4299,1 53172U 22083AS  23041.61399831  .00002669  00000-0  17780-3 0  9992,2 53172  53.2185 160.7556 0001564 102.6692 257.4475 15.10479897 32512,6912.872,95.334,535.819,533.656,0.0
53172.0,STARLINK-4299,PAYLOAD,2023-02-10 19:29:59,15.10498436,9.5e-05,53.2177,159.8576,80.6354,279.4746,0.00024211,3.743e-05,0.0,0 STARLINK-4299,1 53172U 22083AS  23041.81248958  .00003743  00000-0  24211-3 0  9998,2 53172  53.2177 159.8576 0000950  80.6354 279.4746 15.10498436 31909,6912.816,95.333,535.338,534.024,0.0
53172.0,STARLINK-4299,PAYLOAD,2023-02-11 00:15:51,15.10457,5.85e-05,53.22,158.9673,185.7689,174.3297,-0.00033644,-5.885e-05,0.0,0 STARLINK-4299,1 53172U 22083AS  23042.01101196 -.00005885  00000-0 -33644-3 0  9994,2 53172  53.2200 158.9673 0000585 185.7689 174.3297 15.10457000 32576,6912.942,95.335,535.212,534.403,0.0
53172.0,STARLINK-4299,PAYLOAD,2023-02-11 12:58:05,15.10493728,0.0001935,53.2179,156.5827,119.8855,240.2331,3.2804e-05,2.53e-06,0.0,0 STARLINK-4299,1 53172U 22083AS  23042.54034263  .00000253  00000-0  32804-4 0  9992,2 53172  53.2179 156.5827 0001935 119.8855 240.2331 15.10493728 32017,6912.83,95.333,536.033,533.358,0.0
53172.0,STARLINK-4299,PAYLOAD,2023-02-11 17:43:56,15.10502358,0.0001122,53.2173,155.6926,88.356,271.7561,0.00027787,4.339e-05,0.0,0 STARLINK-4299,1 53172U 22083AS  23042.73884498  .00004339  00000-0  27787-3 0  9998,2 53172  53.2173 155.6926 0001122  88.3560 271.7561 15.10502358 32689,6912.804,95.333,535.445,533.893,0.0
53172.0,STARLINK-4299,PAYLOAD,2023-02-12 14:22:37,15.10487404,8.02e-05,53.2155,151.8186,79.4491,280.6592,0.00028363,4.434e-05,0.0,0 STARLINK-4299,1 53172U 22083AS  23043.59904405  .00004434  00000-0  28363-3 0  9991,2 53172  53.2155 151.8186 0000802  79.4491 280.6592 15.10487404 32815,6912.85,95.333,535.269,534.16,0.0
53172.0,STARLINK-4299,PAYLOAD,2023-02-12 23:54:19,15.10476482,6.87e-05,53.2173,150.0351,75.4869,284.62,3.214e-05,2.43e-06,0.0,0 STARLINK-4299,1 53172U 22083AS  23043.99605474  .00000243  00000-0  32140-4 0  9992,2 53172  53.2173 150.0351 0000687  75.4869 284.6200 15.10476482 32876,6912.883,95.334,535.223,534.273,0.0
53172.0,STARLINK-4299,PAYLOAD,2023-02-13 09:26:08,15.10303445,0.0001319,53.2161,148.248,108.3178,251.7959,-0.002655,-0.00044012,0.0,0 STARLINK-4299,1 53172U 22083AS  23044.39315775 -.00044012  00000-0 -26550-2 0  9999,2 53172  53.2161 148.2480 0001319 108.3178 251.7959 15.10303445 32938,6913.411,95.345,536.188,534.364,0.0
53172.0,STARLINK-4299,PAYLOAD,2023-02-13 12:36:48,15.10168863,0.0001341,53.2164,147.6533,19.6957,340.4087,-0.0048252,-0.00079067,0.0,0 STARLINK-4299,1 53172U 22083AS  23044.52556340 -.00079067  00000-0 -48252-2 0  9990,2 53172  53.2164 147.6533 0001341  19.6957 340.4087 15.10168863 32310,6913.822,95.354,536.614,534.759,0.0
53172.0,STARLINK-4299,PAYLOAD,2023-02-13 18:58:05,15.09968376,0.0001191,53.2153,146.4585,128.3523,231.7577,-0.0084226,-0.00135959,0.0,0 STARLINK-4299,1 53172U 22083AS  23044.79034643 -.00135959  00000-0 -84226-2 0  9990,2 53172  53.2153 146.4585 0001191 128.3523 231.7577 15.09968376 32997,6914.434,95.366,537.122,535.475,0.0
53172.0,STARLINK-4299,PAYLOAD,2023-02-13 23:44:06,15.09822335,0.0001478,53.2158,145.5677,89.2357,270.8805,-0.0098895,-0.00158454,0.0,0 STARLINK-4299,1 53172U 22083AS  23044.98896932 -.00158454  00000-0 -98895-2 0  9990,2 53172  53.2158 145.5677 0001478  89.2357 270.8805 15.09822335 33029,6914.879,95.375,537.766,535.722,0.0
53172.0,STARLINK-4299,PAYLOAD,2023-02-14 06:05:30,15.0962819,0.0001509,53.2151,144.378,121.2516,238.8624,-0.011338,-0.0018011,0.0,0 STARLINK-4299,1 53172U 22083AS  23045.25382524 -.00180110  00000-0 -11338-1 0  9998,2 53172  53.2151 144.3780 0001509 121.2516 238.8624 15.09628190 33063,6915.472,95.388,538.381,536.294,0.0
53172.0,STARLINK-4299,PAYLOAD,2023-02-14 20:00:01,15.08834374,0.0001353,53.2149,141.777,96.0938,173.7923,-0.00091715,-0.00014852,0.0,0 STARLINK-4299,1 53172U 22083AS  23045.83334491 -.00014852  00000-0 -91715-3 0  9990,2 53172  53.2149 141.7770 0001353  96.0938 173.7923 15.08834374 33144,6917.898,95.438,540.699,538.827,0.0
53172.0,STARLINK-4299,PAYLOAD,2023-02-17 22:00:00,15.08795498,8.45e-05,53.2169,127.935,82.2276,24.8961,0.00032795,4.929e-05,0.0,0 STARLINK-4299,1 53172U 22083AS  23048.91667824  .00004929  00000-0  32795-3 0  9996,2 53172  53.2169 127.9350 0000845  82.2276  24.8961 15.08795498 33616,6918.016,95.44,540.466,539.297,0.0
53172.0,STARLINK-4299,PAYLOAD,2023-02-18 11:50:09,15.08812231,9.29e-05,53.2198,125.3513,93.6983,266.4116,0.00047994,7.353e-05,0.0,0 STARLINK-4299,1 53172U 22083AS  23049.49316162  .00007353  00000-0  47994-3 0  9997,2 53172  53.2198 125.3513 0000929  93.6983 266.4116 15.08812231 33065,6917.965,95.439,540.473,539.188,0.0
